$$SOE
2460154.500000000, A.D. 2023-Jul-29 00:00:00.0000, 9.583640224813770E+07, 1.943107475233781E+08, 1.071939699192052E+08,
2460161.500000000, A.D. 2023-Aug-05 00:00:00.0000, 8.459012656291923E+07, 2.013533535248422E+08, 9.673107957426670E+07,
2460168.500000000, A.D. 2023-Aug-12 00:00:00.0000, 7.304296985754615E+07, 2.076789878487153E+08, 8.592400229011011E+07,
2460175.500000000, A.D. 2023-Aug-19 00:00:00.0000, 6.122756664650344E+07, 2.132411056149291E+08, 7.480125503226864E+07,
2460182.500000000, A.D. 2023-Aug-26 00:00:00.0000, 4.918094683645532E+07, 2.179970682408563E+08, 6.339591633702625E+07,
2460189.500000000, A.D. 2023-Sep-02 00:00:00.0000, 3.694418927529996E+07, 2.219092919588983E+08, 5.174537000160402E+07,
2460196.500000000, A.D. 2023-Sep-09 00:00:00.0000, 2.456189845185189E+07, 2.249463368870110E+08, 3.989087214673766E+07,
2460203.500000000, A.D. 2023-Sep-16 00:00:00.0000, 1.208151350344432E+07, 2.270838699338582E+08, 2.787694567172247E+07,
2460210.500000000, A.D. 2023-Sep-23 00:00:00.0000, -4.475265309583865E+05, 2.283054372589134E+08, 1.575062044807048E+07,
2460217.500000000, A.D. 2023-Sep-30 00:00:00.0000, -1.297472430288565E+07, 2.286029923153012E+08, 3.560551791839242E+06,
2460224.500000000, A.D. 2023-Oct-07 00:00:00.0000, -2.544952679660514E+07, 2.279771399752153E+08, -8.643938466394931E+06,
2460231.500000000, A.D. 2023-Oct-14 00:00:00.0000, -3.782233359775267E+07, 2.264370756782205E+08, -2.081384692639738E+07,
2460238.500000000, A.D. 2023-Oct-21 00:00:00.0000, -5.004545267502383E+07, 2.240002271493613E+08, -3.290144574672747E+07,
2460245.500000000, A.D. 2023-Oct-28 00:00:00.0000, -6.207395538307222E+07, 2.206916296613136E+08, -4.486116117106412E+07,
2460252.500000000, A.D. 2023-Nov-04 00:00:00.0000, -7.386639233218376E+07, 2.165430814924744E+08, -5.665033150213508E+07,
2460259.500000000, A.D. 2023-Nov-11 00:00:00.0000, -8.538534371000689E+07, 2.115921390182107E+08, -6.822981483192611E+07,
2460266.500000000, A.D. 2023-Nov-18 00:00:00.0000, -9.659779217566080E+07, 2.058810168594171E+08, -7.956443058534056E+07,
2460273.500000000, A.D. 2023-Nov-25 00:00:00.0000, -1.074753204971345E+08, 1.994554571510257E+08, -9.062323244269074E+07,
2460280.500000000, A.D. 2023-Dec-02 00:00:00.0000, -1.179941477944560E+08, 1.923636248963730E+08, -1.013796219866938E+08,
2460287.500000000, A.D. 2023-Dec-09 00:00:00.0000, -1.281350265316604E+08, 1.846550754309216E+08, -1.118113214177920E+08,
2460294.500000000, A.D. 2023-Dec-16 00:00:00.0000, -1.378830269258731E+08, 1.763798273077455E+08, -1.219002293442636E+08,
2460301.500000000, A.D. 2023-Dec-23 00:00:00.0000, -1.472272369010160E+08, 1.675875617420539E+08, -1.316321860152534E+08,
2460308.500000000, A.D. 2023-Dec-30 00:00:00.0000, -1.561604063687812E+08, 1.583269585764844E+08, -1.409966739465326E+08,
2460315.500000000, A.D. 2024-Jan-06 00:00:00.0000, -1.646785621968586E+08, 1.486451658995796E+08, -1.499864779868509E+08,
2460322.500000000, A.D. 2024-Jan-13 00:00:00.0000, -1.727806113566163E+08, 1.385873939926710E+08, -1.585973259305198E+08,
2460329.500000000, A.D. 2024-Jan-20 00:00:00.0000, -1.804679473872873E+08, 1.281966245101547E+08, -1.668275263160670E+08,
2460336.500000000, A.D. 2024-Jan-27 00:00:00.0000, -1.877440743308274E+08, 1.175134207825365E+08, -1.746776160315344E+08,
2460343.500000000, A.D. 2024-Feb-03 00:00:00.0000, -1.946142568499466E+08, 1.065758225931876E+08, -1.821500269587475E+08,
2460350.500000000, A.D. 2024-Feb-10 00:00:00.0000, -2.010852012942009E+08, 9.541930970168628E+07, -1.892487777139398E+08,
2460357.500000000, A.D. 2024-Feb-17 00:00:00.0000, -2.071647700224300E+08, 8.407681976012430E+07, -1.959791938980963E+08,
2460364.500000000, A.D. 2024-Feb-24 00:00:00.0000, -2.128617294184217E+08, 7.257880782364184E+07, -2.023476582281685E+08,
2460371.500000000, A.D. 2024-Mar-02 00:00:00.0000, -2.181855306247817E+08, 6.095333637052388E+07, -2.083613904170446E+08,
2460378.500000000, A.D. 2024-Mar-09 00:00:00.0000, -2.231461209591972E+08, 4.922618650705494E+07, -2.140282556285871E+08,
2460385.500000000, A.D. 2024-Mar-16 00:00:00.0000, -2.277537831425016E+08, 3.742098299078205E+07, -2.193565996517785E+08,
2460392.500000000, A.D. 2024-Mar-23 00:00:00.0000, -2.320189996731561E+08, 2.555932815317653E+07, -2.243551084219535E+08,
2460399.500000000, A.D. 2024-Mar-30 00:00:00.0000, -2.359523417341831E+08, 1.366094000626290E+07, -2.290326892358809E+08,
2460406.500000000, A.D. 2024-Apr-06 00:00:00.0000, -2.395643795788136E+08, 1.743787615283430E+06, -2.333983714876491E+08,
2460413.500000000, A.D. 2024-Apr-13 00:00:00.0000, -2.428656081972399E+08, -1.017577803225537E+07, -2.374612247889345E+08,
2460420.500000000, A.D. 2024-Apr-20 00:00:00.0000, -2.458663867776377E+08, -2.208289683007172E+07, -2.412302919172405E+08,
2460427.500000000, A.D. 2024-Apr-27 00:00:00.0000, -2.485768912743456E+08, -3.396407783248015E+07, -2.447145344367512E+08,
2460434.500000000, A.D. 2024-May-04 00:00:00.0000, -2.510070780336877E+08, -4.580708448026286E+07, -2.479227892012275E+08,
2460441.500000000, A.D. 2024-May-11 00:00:00.0000, -2.531666565154247E+08, -5.760082727782356E+07, -2.508637341188718E+08,
2460448.500000000, A.D. 2024-May-18 00:00:00.0000, -2.550650695290837E+08, -6.933526403084205E+07, -2.535458617333789E+08,
2460455.500000000, A.D. 2024-May-25 00:00:00.0000, -2.567114796685088E+08, -8.100130758369179E+07, -2.559774593594541E+08,
2460462.500000000, A.D. 2024-Jun-01 00:00:00.0000, -2.581147607793548E+08, -9.259074090510167E+07, -2.581665946901218E+08,
2460469.500000000, A.D. 2024-Jun-08 00:00:00.0000, -2.592834932734332E+08, -1.040961392397936E+08, -2.601211059621136E+08,
2460476.500000000, A.D. 2024-Jun-15 00:00:00.0000, -2.602259620960768E+08, -1.155107984140281E+08, -2.618485958704354E+08,
2460483.500000000, A.D. 2024-Jun-22 00:00:00.0000, -2.609501576835833E+08, -1.268286677176033E+08, -2.633564283631504E+08,
2460490.500000000, A.D. 2024-Jun-29 00:00:00.0000, -2.614637814727983E+08, -1.380442887654440E+08, -2.646517276955584E+08,
2460497.500000000, A.D. 2024-Jul-06 00:00:00.0000, -2.617742528522338E+08, -1.491527423901023E+08, -2.657413797061171E+08,
2460504.500000000, A.D. 2024-Jul-13 00:00:00.0000, -2.618887152203315E+08, -1.601496003281021E+08, -2.666320348576460E+08,
2460511.500000000, A.D. 2024-Jul-20 00:00:00.0000, -2.618140428185307E+08, -1.710308801536437E+08, -2.673301124281166E+08,
2460518.500000000, A.D. 2024-Jul-27 00:00:00.0000, -2.615568487333014E+08, -1.817930040420547E+08, -2.678418055864453E+08,
2460525.500000000, A.D. 2024-Aug-03 00:00:00.0000, -2.611234935801256E+08, -1.924327613834955E+08, -2.681730871755607E+08,
2460532.500000000, A.D. 2024-Aug-10 00:00:00.0000, -2.605200945300414E+08, -2.029472749202375E+08, -2.683297160264505E+08,
2460539.500000000, A.D. 2024-Aug-17 00:00:00.0000, -2.597525344917420E+08, -2.133339700782735E+08, -2.683172436482566E+08,
2460546.500000000, A.D. 2024-Aug-24 00:00:00.0000, -2.588264713098455E+08, -2.235905472315900E+08, -2.681410211697186E+08,
2460553.500000000, A.D. 2024-Aug-31 00:00:00.0000, -2.577473467752866E+08, -2.337149566997848E+08, -2.678062064421878E+08,
2460560.500000000, A.D. 2024-Sep-07 00:00:00.0000, -2.565203950128219E+08, -2.437053761140649E+08, -2.673177712418029E+08,
2460567.500000000, A.D. 2024-Sep-14 00:00:00.0000, -2.551506501062295E+08, -2.535601889381683E+08, -2.666805084281839E+08,
2460574.500000000, A.D. 2024-Sep-21 00:00:00.0000, -2.536429549480220E+08, -2.632779635338383E+08, -2.658990387847329E+08,
2460581.500000000, A.D. 2024-Sep-28 00:00:00.0000, -2.520019717692670E+08, -2.728574358194668E+08, -2.649778177173359E+08,
2460588.500000000, A.D. 2024-Oct-05 00:00:00.0000, -2.502321906575963E+08, -2.822974953579930E+08, -2.639211421172492E+08,
2460595.500000000, A.D. 2024-Oct-12 00:00:00.0000, -2.483379364101632E+08, -2.915971717460625E+08, -2.627331570887692E+08,
2460602.500000000, A.D. 2024-Oct-19 00:00:00.0000, -2.463233754644096E+08, -3.007556214407147E+08, -2.614178623856726E+08,
2460609.500000000, A.D. 2024-Oct-26 00:00:00.0000, -2.441925229351687E+08, -3.097721157032133E+08, -2.599791186061027E+08,
2460616.500000000, A.D. 2024-Nov-02 00:00:00.0000, -2.419492495002427E+08, -3.186460296983992E+08, -2.584206531730653E+08,
2460623.500000000, A.D. 2024-Nov-09 00:00:00.0000, -2.395972880400934E+08, -3.273768326295049E+08, -2.567460661028128E+08,
2460630.500000000, A.D. 2024-Nov-16 00:00:00.0000, -2.371402400102750E+08, -3.359640788183389E+08, -2.549588355615398E+08,
2460637.500000000, A.D. 2024-Nov-23 00:00:00.0000, -2.345815815059937E+08, -3.444073996994902E+08, -2.530623232190548E+08,
2460644.500000000, A.D. 2024-Nov-30 00:00:00.0000, -2.319246688180999E+08, -3.527064966977327E+08, -2.510597794240075E+08,
2460651.500000000, A.D. 2024-Dec-07 00:00:00.0000, -2.291727430696072E+08, -3.608611345015693E+08, -2.489543482080971E+08,
2460658.500000000, A.D. 2024-Dec-14 00:00:00.0000, -2.263289346304634E+08, -3.688711334487184E+08, -2.467490719602736E+08,
2460665.500000000, A.D. 2024-Dec-21 00:00:00.0000, -2.233962696382183E+08, -3.767363622097851E+08, -2.444468956644883E+08,
2460672.500000000, A.D. 2024-Dec-28 00:00:00.0000, -2.203776766612804E+08, -3.844567336886487E+08, -2.420506711304306E+08,
2460679.500000000, A.D. 2025-Jan-04 00:00:00.0000, -2.172759909175695E+08, -3.920322017196113E+08, -2.395631612684281E+08,
2460686.500000000, A.D. 2025-Jan-11 00:00:00.0000, -2.140939578802336E+08, -3.994627568614099E+08, -2.369870441127540E+08,
2460693.500000000, A.D. 2025-Jan-18 00:00:00.0000, -2.108342371973133E+08, -4.067484221702824E+08, -2.343249165908344E+08,
2460700.500000000, A.D. 2025-Jan-25 00:00:00.0000, -2.074994066912748E+08, -4.138892493934841E+08, -2.315792981059684E+08,
2460707.500000000, A.D. 2025-Feb-01 00:00:00.0000, -2.040919662579279E+08, -4.208853155835080E+08, -2.287526339600713E+08,
2460714.500000000, A.D. 2025-Feb-08 00:00:00.0000, -2.006143416151147E+08, -4.277367200864415E+08, -2.258472986270851E+08,
$$EOE